NORAD_CAT_ID,OBJECT_NAME,OBJECT_TYPE,EPOCH,MEAN_MOTION,ECCENTRICITY,INCLINATION,RA_OF_ASC_NODE,ARG_OF_PERICENTER,MEAN_ANOMALY,BSTAR,MEAN_MOTION_DOT,MEAN_MOTION_DDOT,TLE_LINE0,TLE_LINE1,TLE_LINE2,SEMIMAJOR_AXIS,PERIOD,APOGEE,PERIGEE,DECAYED
52682.0,STARLINK-4017,PAYLOAD,2022-09-10 14:00:01,15.08811223,0.0001885999999999,53.2149,112.7775,57.2857,356.4889,0.0023688,0.00037583,0.0,0 STARLINK-4017,1 52682U 22053AC  22253.58334491  .00037583  00000-0  23688-2 0  9991,2 52682  53.2149 112.7775 0001886  57.2857 356.4889 15.08811223  1304,6917.968000000003,95.439,541.138,538.529,0.0
52682.0,STARLINK-4017,PAYLOAD,2022-09-10 22:00:00,15.088316199999998,0.0002044,53.2146,111.2828,52.6245,12.7299,-5.3353e-05,-1.137e-05,0.0,0 STARLINK-4017,1 52682U 22053AC  22253.91667824 -.00001137  00000-0 -53353-4 0  9999,2 52682  53.2146 111.2828 0002044  52.6245  12.7299 15.08831620  1301,6917.906,95.438,541.185,538.357,0.0
52682.0,STARLINK-4017,PAYLOAD,2022-09-11 06:00:00,15.08856108,0.0001978,53.2142,109.7853,53.0255,23.9132,-0.0014838,-0.00023836,0.0,0 STARLINK-4017,1 52682U 22053AC  22254.25001157 -.00023836  00000-0 -14838-2 0  9991,2 52682  53.2142 109.7853 0001978  53.0255  23.9132 15.08856108 18203,6917.831,95.437,541.065,538.328,0.0
52682.0,STARLINK-4017,PAYLOAD,2022-09-11 14:00:01,15.08848621,0.0001863,53.2143,108.2879,58.6619,29.8796,0.0010546,0.0001654,0.0,0 STARLINK-4017,1 52682U 22053AC  22254.58334491  .00016540  00000-0  10546-2 0  9991,2 52682  53.2143 108.2879 0001863  58.6619  29.8796 15.08848621  1309,6917.854,95.437,541.008,538.43,0.0
52682.0,STARLINK-4017,PAYLOAD,2022-09-11 20:00:01,15.08866586,0.0001928,53.2141,107.167,53.5284,313.7222,-0.0034813,-0.00055309,0.0,0 STARLINK-4017,1 52682U 22053AC  22254.83334491 -.00055309  00000-0 -34813-2 0  9990,2 52682  53.2141 107.1670 0001928  53.5284 313.7222 15.08866586 18282,6917.799,95.436,540.998,538.33,0.0
52682.0,STARLINK-4017,PAYLOAD,2022-09-11 22:00:00,15.08841743,0.0001955,53.2141,106.7932,52.6459,47.5138,-0.0009217,-0.00014928,0.0,0 STARLINK-4017,1 52682U 22053AC  22254.91667824 -.00014928  00000-0 -92170-3 0  9991,2 52682  53.2141 106.7932 0001955  52.6459  47.5138 15.08841743  1303,6917.875,95.437,541.0930000000002,538.388,0.0
52682.0,STARLINK-4017,PAYLOAD,2022-09-12 12:00:00,15.0883029,0.0001744,53.2136,104.1723,57.0602,333.3844,0.0015672,0.00024735,0.0,0 STARLINK-4017,1 52682U 22053AC  22255.50001157  .00024735  00000-0  15672-2 0  9994,2 52682  53.2136 104.1723 0001744  57.0602 333.3844 15.08830290 18383,6917.91,95.438,540.982,538.569,0.0
52682.0,STARLINK-4017,PAYLOAD,2022-09-12 14:00:01,15.08854095,0.0001776,53.2139,103.7983,58.1034,65.2321,-0.0012656,-0.00020382,0.0,0 STARLINK-4017,1 52682U 22053AC  22255.58334491 -.00020382  00000-0 -12656-2 0  9997,2 52682  53.2139 103.7983 0001776  58.1034  65.2321 15.08854095  1309,6917.837,95.437,540.931,538.474,0.0
52682.0,STARLINK-4017,PAYLOAD,2022-09-12 22:00:00,15.08819013,0.0001875,53.2137,102.3035,50.7496,84.195,0.0010860999999999,0.0001703,0.0,0 STARLINK-4017,1 52682U 22053AC  22255.91667824  .00017030  00000-0  10861-2 0  9993,2 52682  53.2137 102.3035 0001875  50.7496  84.1950 15.08819013  1309,6917.945,95.439,541.107,538.512,0.0
52682.0,STARLINK-4017,PAYLOAD,2022-09-13 06:00:00,15.08849,0.0001786,53.2134,100.8059,51.5898,94.9297,-0.0012710999999999,-0.00020466,0.0,0 STARLINK-4017,1 52682U 22053AC  22256.25001157 -.00020466  00000-0 -12711-2 0  9997,2 52682  53.2134 100.8059 0001786  51.5898  94.9297 15.08849000 18503,6917.853,95.437,540.953,538.482,0.0
52682.0,STARLINK-4017,PAYLOAD,2022-09-13 14:00:01,15.08856924,0.0001737,53.2137,99.3087,56.5984,101.5134,-0.00085187,-0.00013826,0.0,0 STARLINK-4017,1 52682U 22053AC  22256.58334491 -.00013826  00000-0 -85187-3 0  9993,2 52682  53.2137  99.3087 0001737  56.5984 101.5134 15.08856924  1304,6917.829000000002,95.436,540.895,538.492,0.0
52682.0,STARLINK-4017,PAYLOAD,2022-09-13 22:00:00,15.08814469,0.000185,53.2137,97.8139,48.5763,121.1466,0.0014402,0.00022691,0.0,0 STARLINK-4017,1 52682U 22053AC  22256.91667824  .00022691  00000-0  14402-2 0  9998,2 52682  53.2137  97.8139 0001850  48.5763 121.1466 15.08814469  1301,6917.958000000001,95.439,541.1030000000002,538.544,0.0
52682.0,STARLINK-4017,PAYLOAD,2022-09-14 06:00:00,15.08865449,0.0001779,53.2152,96.3169,48.4282,132.8552,-0.0058036,-0.00091545,0.0,0 STARLINK-4017,1 52682U 22053AC  22257.25001157 -.00091545  00000-0 -58036-2 0  9994,2 52682  53.2152  96.3169 0001779  48.4282 132.8552 15.08865449 18655,6917.803000000001,95.436,540.898,538.437,0.0
52682.0,STARLINK-4017,PAYLOAD,2022-09-14 14:00:01,15.08841817,0.0001749,53.2141,94.8192,54.57,138.3035,0.0007351,0.00011431,0.0,0 STARLINK-4017,1 52682U 22053AC  22257.58334491  .00011431  00000-0  73510-3 0  9999,2 52682  53.2141  94.8192 0001749  54.5700 138.3035 15.08841817 18708,6917.875,95.437,540.95,538.53,0.0
52682.0,STARLINK-4017,PAYLOAD,2022-09-14 22:00:00,15.0884186,0.0001898,53.2142,93.3245,47.0508,157.4277,-0.00079568,-0.0001293,0.0,0 STARLINK-4017,1 52682U 22053AC  22257.91667824 -.00012930  00000-0 -79568-3 0  9991,2 52682  53.2142  93.3245 0001898  47.0508 157.4277 15.08841860  1306,6917.875,95.437,541.053,538.427,0.0
52682.0,STARLINK-4017,PAYLOAD,2022-09-15 06:00:00,15.08839791,0.0001733999999999,53.2144,91.8266,47.0208,169.0526,-0.0009271,-0.00015013,0.0,0 STARLINK-4017,1 52682U 22053AC  22258.25001157 -.00015013  00000-0 -92710-3 0  9999,2 52682  53.2144  91.8266 0001734  47.0208 169.0526 15.08839791 18809,6917.880999999999,95.438,540.946,538.5459999999998,0.0
52682.0,STARLINK-4017,PAYLOAD,2022-09-15 14:00:01,15.08842828,0.0001736,53.2148,90.3299,51.7149,175.9389,0.00045149,6.905e-05,0.0,0 STARLINK-4017,1 52682U 22053AC  22258.58334491  .00006905  00000-0  45149-3 0  9997,2 52682  53.2148  90.3299 0001736  51.7149 175.9389 15.08842828  1306,6917.871999999999,95.437,540.938,538.536,0.0
52682.0,STARLINK-4017,PAYLOAD,2022-09-15 16:10:29,15.08837312,0.0001885,53.2153,89.9237,53.8816,306.2351,1.5963e-05,-3.4e-07,0.0,0 STARLINK-4017,1 52682U 22053AC  22258.67395794 -.00000034  00000-0  15963-4 0  9990,2 52682  53.2153  89.9237 0001885  53.8816 306.2351 15.08837312 19272,6917.889,95.438,541.058,538.45,0.0
52682.0,STARLINK-4017,PAYLOAD,2022-09-16 08:04:20,15.0884396,0.0001568,53.2154,86.9491,58.942,301.1725,5.1699e-05,5.35e-06,0.0,0 STARLINK-4017,1 52682U 22053AC  22259.33635239  .00000535  00000-0  51699-4 0  9996,2 52682  53.2154  86.9491 0001568  58.9420 301.1725 15.08843960 18967,6917.868,95.437,540.818,538.649,0.0
52682.0,STARLINK-4017,PAYLOAD,2022-09-16 19:12:03,15.08845654,0.0001682,53.2155,84.8692,47.7585,312.3549,-0.00018355,-3.209e-05,0.0,0 STARLINK-4017,1 52682U 22053AC  22259.80003896 -.00003209  00000-0 -18355-3 0  9990,2 52682  53.2155  84.8692 0001682  47.7585 312.3549 15.08845654 19032,6917.863,95.437,540.8919999999998,538.565,0.0
52682.0,STARLINK-4017,PAYLOAD,2022-09-17 07:55:08,15.08833845,0.0001635,53.2155,82.4903,48.5934,311.5198,-8.9011e-06,-4.3e-06,0.0,0 STARLINK-4017,1 52682U 22053AC  22260.32996235 -.00000430  00000-0 -89011-5 0  9999,2 52682  53.2155  82.4903 0001635  48.5934 311.5198 15.08833845 19115,6917.899,95.438,540.895,538.633,0.0
52682.0,STARLINK-4017,PAYLOAD,2022-09-17 12:41:19,15.08808314,0.0001633,53.2161,81.5984,42.4932,317.6187,0.00015718,2.212e-05,0.0,0 STARLINK-4017,1 52682U 22053AC  22260.52869432  .00002212  00000-0  15718-3 0  9998,2 52682  53.2161  81.5984 0001633  42.4932 317.6187 15.08808314 19556,6917.977,95.44,540.972,538.7130000000002,0.0
52682.0,STARLINK-4017,PAYLOAD,2022-09-17 17:27:25,15.08945501,0.0002513,53.216,80.7061,38.9189,321.1984,-0.0016926999999999,-0.00027206,0.0,0 STARLINK-4017,1 52682U 22053AC  22260.72737757 -.00027206  00000-0 -16927-2 0  9998,2 52682  53.2160  80.7061 0002513  38.9189 321.1984 15.08945501 19177,6917.558000000001,95.431,541.161,537.685,0.0
52682.0,STARLINK-4017,PAYLOAD,2022-09-18 04:35:10,15.08829174,0.0001724,53.2164,78.6248,38.1162,321.9952,-1.3721e-05,-5.06e-06,0.0,0 STARLINK-4017,1 52682U 22053AC  22261.19109164 -.00000506  00000-0 -13721-4 0  9990,2 52682  53.2164  78.6248 0001724  38.1162 321.9952 15.08829174 19248,6917.913000000001,95.438,540.971,538.586,0.0
52682.0,STARLINK-4017,PAYLOAD,2022-09-18 12:32:05,15.08829083,0.0001726,53.2163,77.1375,39.6765,320.4354,5.1528e-05,5.32e-06,0.0,0 STARLINK-4017,1 52682U 22053AC  22261.52229160  .00000532  00000-0  51528-4 0  9990,2 52682  53.2163  77.1375 0001726  39.6765 320.4354 15.08829083 19709,6917.9140000000025,95.438,540.9730000000002,538.585,0.0
52682.0,STARLINK-4017,PAYLOAD,2022-09-18 18:53:38,15.08833029,0.0001733999999999,53.2162,75.9475,41.861,318.2514,8.373e-05,1.045e-05,0.0,0 STARLINK-4017,1 52682U 22053AC  22261.78724986  .00001045  00000-0  83730-4 0  9994,2 52682  53.2162  75.9475 0001734  41.8610 318.2514 15.08833029 19740,6917.901999999999,95.438,540.966,538.567,0.0
52682.0,STARLINK-4017,PAYLOAD,2022-09-19 06:01:20,15.08839438,0.0001728,53.2162,73.8657,42.8939,317.2188,9.9121e-05,1.29e-05,0.0,0 STARLINK-4017,1 52682U 22053AC  22262.25092677  .00001290  00000-0  99121-4 0  9995,2 52682  53.2162  73.8657 0001728  42.8939 317.2188 15.08839438 19811,6917.882,95.438,540.943,538.552,0.0
52682.0,STARLINK-4017,PAYLOAD,2022-09-19 20:19:49,15.08828797,0.0001730999999999,53.2164,71.189,44.1826,315.9304,7.747300000000001e-05,9.45e-06,0.0,0 STARLINK-4017,1 52682U 22053AC  22262.84709745  .00000945  00000-0  77473-4 0  9993,2 52682  53.2164  71.1890 0001731  44.1826 315.9304 15.08828797 19492,6917.915,95.438,540.977,538.582,0.0
52682.0,STARLINK-4017,PAYLOAD,2022-09-20 13:49:03,15.08839308,0.0001774999999999,53.2165,67.9179,45.1193,314.9943,8.491299999999999e-05,1.064e-05,0.0,0 STARLINK-4017,1 52682U 22053AC  22263.57573305  .00001064  00000-0  84913-4 0  9995,2 52682  53.2165  67.9179 0001775  45.1193 314.9943 15.08839308 19603,6917.8830000000025,95.438,540.975,538.52,0.0
